[{"OBJECT_NAME":"STARLINK-31456","OBJECT_ID":"2024-036K","EPOCH":"2026-03-09T08:22:24.721536","MEAN_MOTION":15.30196649,"ECCENTRICITY":0.00011622,"INCLINATION":53.1606,"RA_OF_ASC_NODE":79.5262,"ARG_OF_PERICENTER":80.438,"MEAN_ANOMALY":279.6752,"EPHEMERIS_TYPE":0,"CLASSIFICATION_TYPE":"U","NORAD_CAT_ID":59007,"ELEMENT_SET_NO":999,"REV_AT_EPOCH":11527,"BSTAR":-5.9411838e-5,"MEAN_MOTION_DOT":-2.118e-5,"MEAN_MOTION_DDOT":0},{"OBJECT_NAME":"JINJUSAT-1B","OBJECT_ID":"2025-052A","EPOCH":"2026-03-09T15:55:38.242848","MEAN_MOTION":15.30194857,"ECCENTRICITY":0.00055504,"INCLINATION":97.4113,"RA_OF_ASC_NODE":325.4613,"ARG_OF_PERICENTER":82.193,"MEAN_ANOMALY":277.9941,"EPHEMERIS_TYPE":0,"CLASSIFICATION_TYPE":"U","NORAD_CAT_ID":63210,"ELEMENT_SET_NO":999,"REV_AT_EPOCH":5486,"BSTAR":0.00068430401,"MEAN_MOTION_DOT":0.00019955,"MEAN_MOTION_DDOT":0}]
